#aV2008  3  8  0  0   .00000000      96 DD+AD WGS84 FIT  NGA
## 1469 518400.00000000   900.00000000 54533  .0000000000000
+   31     1  2  3  4  5  6  8  9 10 11 12 13 14 15 16 17 18
+         19 20 21 22 23 24 25 26 27 28 29 30 31 32  0  0  0
+          0  0  0  0  0  0  0  0  0  0  0  0  0  0  0  0  0
+          0  0  0  0  0  0  0  0  0  0  0  0  0  0  0  0  0
+          0  0  0  0  0  0  0  0  0  0  0  0  0  0  0  0  0
++         0  0  0  0  0  0  0  0  0  0  0  0  0  0  0  0  0
++         0  0  0  0  0  0  0  0  0  0  0  0  0  0  0  0  0
++         0  0  0  0  0  0  0  0  0  0  0  0  0  0  0  0  0
++         0  0  0  0  0  0  0  0  0  0  0  0  0  0  0  0  0
++         0  0  0  0  0  0  0  0  0  0  0  0  0  0  0  0  0
%c cc cc ccc ccc cccc cccc cccc cccc ccccc ccccc ccccc ccccc
%c cc cc ccc ccc cccc cccc cccc cccc ccccc ccccc ccccc ccccc
%f  0.0000000  0.000000000  0.00000000000  0.000000000000000
%f  0.0000000  0.000000000  0.00000000000  0.000000000000000
%i    0    0    0    0      0      0      0      0         0
%i    0    0    0    0      0      0      0      0         0
/*      NGA, ST. LOUIS,MO.                                  
/*   EPHEMERIS COMPUTED FROM  3 DAYS OF DATA                
/* CCCCCCCCCCCCCCCCCCCCCCCCCCCCCCCCCCCCCCCCCCCCCCCCCCCCCCCCC
/* CCCCCCCCCCCCCCCCCCCCCCCCCCCCCCCCCCCCCCCCCCCCCCCCCCCCCCCCC
*  2008  3  8 16 15   .00000000                                                 
P  1 -18049.535653  19238.418984  -2511.762244    190.885274                    
V  1    738.755165  -3874.387878 -32262.252616       .026355                    
P  2  11011.474264 -13346.351385  19883.768576    180.452786                    
V  2  25510.881025   4076.817169 -11622.731244       .030996                    
P  3  -9323.429216  24098.517106  -5540.265179    197.602849                    
V  3  -6932.286233   3852.675373  30113.983530       .051404                    
P  4  22101.221318  -6950.844106  13211.868103    -22.435006                    
V  4  16412.528891   4468.107080 -24560.313300      -.071158                    
P  5 -16199.147178 -20131.003070   6196.849387    715.127852                    
V  5  -1139.883611  -8725.095427 -29905.625154       .121654                    
P  6 -19781.426765   8219.537665  15926.337885     55.252513                    
V  6   9216.530115 -17849.827865  20846.553195       .158411                    
P  8  26073.216272      1.343319  -6315.637392   -144.053695                    
V  8   7416.236249   2902.069573  30588.839476      -.016269                    
P  9 -12617.980040 -14180.744524 -19267.798763    114.161878                    
V  9  23100.182340    689.805513 -15996.985349       .017199                    
P 10   1078.272903 -22495.591092  13674.821654   -270.584272                    
V 10   8868.726398  15514.024483  24909.680057      -.579589                    
P 11  16260.038179  12621.103692 -17094.616514     26.896833                    
V 11 -21321.667324   4197.350806 -17006.840812      -.000753                    
P 12 -12330.110457 -23418.432481   2813.002841   -357.807974                    
V 12   1046.787114  -4215.971047 -31491.686674      -.005649                    
P 13  15235.505768   3213.106183  21402.219264    244.290844                    
V 13 -16804.010918  21582.650352   8706.462775       .020388                    
P 14 -19905.624977  12392.665003 -12286.930879   -289.947729                    
V 14   8366.455823 -13449.081490 -26986.903141       .038342                    
P 15   2949.376483 -21863.799909 -14762.108044    -83.337687                    
V 15  12723.014283 -14002.637786  23242.287587      -.037689                    
P 16  -4612.968713  19758.341581  17113.397792    131.970087                    
V 16  -9945.440018 -19310.796554  19883.736005      -.008179                    
P 17  20012.567853 -11955.824940 -12554.032571     41.348111                    
V 17  -7709.805644  14283.537337 -25986.972592      -.005220                    
P 18 -17301.196825 -11363.111589 -16664.773941   -198.162243                    
V 18  -6083.192336 -20585.905455  19797.866620       .032210                    
P 19  -3814.235054  21192.652485 -15351.261302     23.493931                    
V 19 -14423.366842  13626.673093  22439.852441       .012892                    
P 20  13787.960341  22231.748480   4625.006434    119.039182                    
V 20   -339.737027   6769.945266 -30710.731875      -.008015                    
P 21 -26223.316522  -5484.802849   2482.600440     70.029999                    
V 21   3301.713236  -2597.079420  30615.549059      -.008955                    
P 22 -14910.636337   4224.426193 -21418.632053    209.389982                    
V 22  -9775.447699 -25822.872861   1658.469315       .004286                    
P 23   5903.499064  15599.662349  20547.300412    339.496541                    
V 23 -16421.372270  20526.649223 -11056.403157       .026489                    
P 24 -18417.362306 -13051.527426  13935.755241     76.491717                    
V 24  17714.507176    380.520989  24341.568970       .031377                    
P 25  21794.840015   8981.567687  12418.319819    526.026219                    
V 25 -15293.901671   2045.994577  26309.957005       .088824                    
P 26   6399.193570 -21943.681542 -13493.480574    202.516608                    
V 26  11662.884737 -11823.480249  26193.129786       .094857                    
P 27  25771.134158   4940.428222   5281.432346    172.876050                    
V 27  -5932.468701   2011.480011  30885.265128       .025255                    
P 28  15508.776443   -995.453263 -21205.432474    -16.209371                    
V 28  10079.402297  25866.754103   5716.679128      -.004937                    
P 29 -13614.100699  -7244.721943  21740.050224    -51.403209                    
V 29  16408.948874 -21857.958625   3033.104029       .035154                    
P 30 -17356.480017 -15856.771666  12123.995079     66.827840                    
V 30  -4522.073522 -15484.724124 -25915.531009       .015578                    
P 31 -20260.693392   8416.555255  15252.242665    -11.994611                    
V 31 -18643.386854  -3791.367251 -22891.672860      -.013651                    
P 32  -7432.024631  17284.765191 -18396.160992    245.403587                    
V 32  -9064.497999 -22433.155889 -16855.257283       .081778                    
EOF
